NUSAT-37 (JOAN CLARKE)  
1 56203U 23054AB  26159.49255588  .00039419  00000+0  55634-3 0  9990
2 56203  97.2646  66.4145 0003484 320.2974  39.8026 15.56479455177299
GHGSAT-C6               
1 56204U 23054AC  26159.49149932  .00014548  00000+0  23715-3 0  9997
2 56204  97.3048  69.2391 0008359  78.2791 281.9399 15.52682782177102
GHGSAT-C7               
1 56209U 23054AH  26159.48023920  .00010564  00000+0  19191-3 0  9996
2 56209  97.3015  67.7408 0009377  71.5687 288.6583 15.49695272177040
KEPLER-21               
1 56218U 23054AS  26159.29972832  .00238359  24130-4  60636-3 0  9999
2 56218  97.2823  78.6781 0005907 114.7945 245.3946 15.95405137177800
AAC-HSI-SAT1            
1 56225U 23054AZ  26159.49679115  .00001711  00000+0  10178-3 0  9998
2 56225  97.3701  36.1698 0010713 146.5653 213.6257 15.12493343174052
OUTPOST MISSION 1       
1 56226U 23084BK  26159.38918987  .00323379  45240-4  68884-3 0  9997
2 56226  97.6007 322.0572 0007146 252.6472 107.4024 15.98629915167613
FENGYUN 3G              
1 56232U 23055A   26159.48238388  .00022644  00000+0  34384-3 0  9992
2 56232  49.9936  30.8721 0005596 164.8545 195.2592 15.54426183178658
STARLINK-30107          
1 56287U 23056B   26158.95638188 -.00001900  00000+0 -59561-4 0  9995
2 56287  43.0117  41.3774 0000933 255.8401 104.2347 15.27563786174106
STARLINK-30106          
1 56288U 23056C   26159.40276971  .00013123  00000+0  48624-3 0  9990
2 56288  43.0050  56.6060 0000635 219.4402 140.6403 15.27534674173915
STARLINK-30095          
1 56289U 23056D   26159.35973461  .00000624  00000+0  32217-4 0  9997
2 56289  43.0099  30.9768 0002587  78.1375 281.9767 15.27573204174203
STARLINK-30103          
1 56290U 23056E   26159.40661289  .00000509  00000+0  28023-4 0  9999
2 56290  43.0063  56.6256 0001068 279.8426  80.2305 15.27575192173916
STARLINK-30113          
1 56291U 23056F   26158.41811236 -.00000931  00000+0 -24306-4 0  9990
2 56291  43.0044  62.1066 0001357 270.6839  89.3857 15.27569224173769
STARLINK-30098          
1 56292U 23056G   26159.41047387  .00008252  00000+0  30919-3 0  9998
2 56292  43.0010  56.6426 0001494 261.7893  98.2789 15.27566806173917
STARLINK-30049          
1 56294U 23056J   26159.42459845 -.00001532  00000+0 -46185-4 0  9996
2 56294  43.0069  56.6872 0000520 281.3890  78.6904 15.27567351173919
STARLINK-30083          
1 56295U 23056K   26159.34701898 -.00003072  00000+0 -10226-3 0  9993
2 56295  43.0031  31.7247 0000589 280.4691  79.6095 15.27549569174186
STARLINK-30089          
1 56296U 23056L   26158.90270613 -.00010052  00000+0 -35708-3 0  9999
2 56296  43.0045  19.6626 0000955 304.9491  55.1270 15.27506030174297
STARLINK-30086          
1 56297U 23056M   26159.41944958 -.00000229  00000+0  11920-5 0  9993
2 56297  43.0046  56.6426 0001136 281.0349  79.0375 15.27581001173917
STARLINK-30109          
1 56298U 23056N   26159.00143012 -.00000829  00000+0 -20593-4 0  9993
2 56298  43.0018  58.6751 0001493 118.4200 241.6802 15.27571812173916
STARLINK-30108          
1 56299U 23056P   26159.15405921  .00002454  00000+0  98687-4 0  9993
2 56299  43.0044  46.8146 0001670 271.7664  88.2996 15.27577923174062
STARLINK-30104          
1 56300U 23056Q   26159.41687369 -.00012908  00000+0 -45958-3 0  9992
2 56300  42.9994  56.7008 0001969 276.4697  83.5931 15.27631852173971
STARLINK-30101          
1 56301U 23056R   26158.45679097  .00019970  00000+0  72784-3 0  9996
2 56301  43.0028  61.5262 0002813 264.7983  95.2548 15.27821609173835
STARLINK-30111          
1 56302U 23056S   26158.99244446 -.00000935  00000+0 -24466-4 0  9990
2 56302  43.0018  58.6043 0001303 249.8793 110.1918 15.27568885173916
STARLINK-30099          
1 56304U 23056U   26158.99629890 -.00000003  00000+0  94101-5 0  9991
2 56304  43.0020  58.6201 0001583 262.5919  97.4753 15.27564896173911
STARLINK-30094          
1 56305U 23056V   26159.00273181 -.00005684  00000+0 -19731-3 0  9998
2 56305  42.9970  58.6565 0002846 281.8325  78.2207 15.27550544173911
STARLINK-30112          
1 56306U 23056W   26158.98860292 -.00001207  00000+0 -34359-4 0  9991
2 56306  43.0017  58.5727 0000649 237.6961 122.3828 15.27562406173919
POEM-2                  
1 56308U 23057A   26159.32588256  .00002400  00000+0  15079-3 0  9991
2 56308   9.8891 326.3497 0020474 168.8395 191.2272 14.94959867170936
LUMELITE-4              
1 56309U 23057B   26159.25653494  .00009949  00000+0  38518-3 0  9999
2 56309   9.9917 128.0757 0005297 320.6451  39.3380 15.21841957172698
TELEOS-2                
1 56310U 23057C   26158.89154152  .00006011  00000+0  45670-3 0  9991
2 56310   9.9883 271.8788 0000885 272.4050  87.6062 14.96414087171402
STARLINK-6038           
1 56317U 23058A   26159.51525277 -.00000264  00000+0 -14293-4 0  9993
2 56317  97.3846 160.0298 0001918  89.3625 270.7822 15.05647862171516
STARLINK-5954           
1 56318U 23058B   26159.48757561  .00002057  00000+0  14659-3 0  9998
2 56318  97.3864 160.0674 0001519  97.3101 262.8299 15.05640492171512
