OBJECT_NAME,OBJECT_ID,EPOCH,MEAN_MOTION,ECCENTRICITY,INCLINATION,RA_OF_ASC_NODE,ARG_OF_PERICENTER,MEAN_ANOMALY,EPHEMERIS_TYPE,CLASSIFICATION_TYPE,NORAD_CAT_ID,ELEMENT_SET_NO,REV_AT_EPOCH,BSTAR,MEAN_MOTION_DOT,MEAN_MOTION_DDOT
NUSAT-37 (JOAN CLARKE),2023-054AB,2026-06-08T11:49:16.828032,15.56479455,.0003484,97.2646,66.4145,320.2974,39.8026,0,U,56203,999,17729,.55634E-3,.39419E-3,0
GHGSAT-C6,2023-054AC,2026-06-08T11:47:45.541248,15.52682782,.0008359,97.3048,69.2391,78.2791,281.9399,0,U,56204,999,17710,.23715E-3,.14548E-3,0
GHGSAT-C7,2023-054AH,2026-06-08T11:31:32.666880,15.49695272,.0009377,97.3015,67.7408,71.5687,288.6583,0,U,56209,999,17704,.19191E-3,.10564E-3,0
KEPLER-21,2023-054AS,2026-06-08T07:11:36.526848,15.95405137,.0005907,97.2823,78.6781,114.7945,245.3946,0,U,56218,999,17780,.60636E-3,.238359E-2,.2413E-4
AAC-HSI-SAT1,2023-054AZ,2026-06-08T11:55:22.755360,15.12493343,.0010713,97.3701,36.1698,146.5653,213.6257,0,U,56225,999,17405,.10178E-3,.1711E-4,0
OUTPOST MISSION 1,2023-084BK,2026-06-08T09:20:26.004768,15.98629915,.0007146,97.6007,322.0572,252.6472,107.4024,0,U,56226,999,16761,.68884E-3,.323379E-2,.4524E-4
FENGYUN 3G,2023-055A,2026-06-08T11:34:37.967232,15.54426183,.0005596,49.9936,30.8721,164.8545,195.2592,0,U,56232,999,17865,.34384E-3,.22644E-3,0
STARLINK-30107,2023-056B,2026-06-07T22:57:11.394432,15.27563786,.00009331,43.0117,41.3774,255.8401,104.2347,0,U,56287,999,17410,-.59560941E-4,-.19E-4,0
STARLINK-30106,2023-056C,2026-06-08T09:39:59.302944,15.27534674,.0000635,43.0050,56.6060,219.4402,140.6403,0,U,56288,999,17391,.48624E-3,.13123E-3,0
STARLINK-30095,2023-056D,2026-06-08T08:38:01.070304,15.27573204,.0002587,43.0099,30.9768,78.1375,281.9767,0,U,56289,999,17420,.32217E-4,.624E-5,0
STARLINK-30103,2023-056E,2026-06-08T09:45:31.353696,15.27575192,.0001068,43.0063,56.6256,279.8426,80.2305,0,U,56290,999,17391,.28023E-4,.509E-5,0
STARLINK-30113,2023-056F,2026-06-07T10:02:04.907904,15.27569224,.00013574,43.0044,62.1066,270.6839,89.3857,0,U,56291,999,17376,-.24306073E-4,-.931E-5,0
STARLINK-30098,2023-056G,2026-06-08T09:51:04.942368,15.27566806,.0001494,43.0010,56.6426,261.7893,98.2789,0,U,56292,999,17391,.30919E-3,.8252E-4,0
STARLINK-30049,2023-056J,2026-06-08T10:11:25.306080,15.27567351,.000052,43.0069,56.6872,281.3890,78.6904,0,U,56294,999,17391,-.46185E-4,-.1532E-4,0
STARLINK-30083,2023-056K,2026-06-08T08:19:42.439872,15.27549569,.0000589,43.0031,31.7247,280.4691,79.6095,0,U,56295,999,17418,-.10226E-3,-.3072E-4,0
STARLINK-30089,2023-056L,2026-06-07T21:39:53.809632,15.27506030,.0000955,43.0045,19.6626,304.9491,55.1270,0,U,56296,999,17429,-.35708198E-3,-.10052E-3,0
STARLINK-30086,2023-056M,2026-06-08T10:04:00.443712,15.27581001,.0001136,43.0046,56.6426,281.0349,79.0375,0,U,56297,999,17391,.1192E-5,-.229E-5,0
STARLINK-30109,2023-056N,2026-06-08T00:02:03.562368,15.27571812,.00014932,43.0018,58.6751,118.4200,241.6802,0,U,56298,999,17391,-.20592707E-4,-.829E-5,0
STARLINK-30108,2023-056P,2026-06-08T03:41:50.715744,15.27577923,.00016706,43.0044,46.8146,271.7664,88.2996,0,U,56299,999,17406,.98686689E-4,.2454E-4,0
STARLINK-30104,2023-056Q,2026-06-08T10:00:17.886816,15.27631852,.0001969,42.9994,56.7008,276.4697,83.5931,0,U,56300,999,17397,-.45958E-3,-.12908E-3,0
STARLINK-30101,2023-056R,2026-06-07T10:57:46.739808,15.27821609,.00028133,43.0028,61.5262,264.7983,95.2548,0,U,56301,999,17383,.72784399E-3,.1997E-3,0
STARLINK-30111,2023-056S,2026-06-07T23:49:07.201344,15.27568885,.00013031,43.0018,58.6043,249.8793,110.1918,0,U,56302,999,17391,-.24465604E-4,-.935E-5,0
STARLINK-30099,2023-056U,2026-06-07T23:54:40.224960,15.27564896,.00015834,43.0020,58.6201,262.5919,97.4753,0,U,56304,999,17391,.9410051E-5,-.3E-7,0
STARLINK-30094,2023-056V,2026-06-08T00:03:56.028384,15.27550544,.00028461,42.9970,58.6565,281.8325,78.2207,0,U,56305,999,17391,-.19731097E-3,-.5684E-4,0
STARLINK-30112,2023-056W,2026-06-07T23:43:35.292288,15.27562406,.00006497,43.0017,58.5727,237.6961,122.3828,0,U,56306,999,17391,-.34358642E-4,-.1207E-4,0
POEM-2,2023-057A,2026-06-08T07:49:16.253184,14.94959867,.0020474,9.8891,326.3497,168.8395,191.2272,0,U,56308,999,17093,.15079E-3,.24E-4,0
LUMELITE-4,2023-057B,2026-06-08T06:09:24.618816,15.21841957,.0005297,9.9917,128.0757,320.6451,39.3380,0,U,56309,999,17269,.38518E-3,.9949E-4,0
TELEOS-2,2023-057C,2026-06-07T21:23:49.187328,14.96414087,.00008855,9.9883,271.8788,272.4050,87.6062,0,U,56310,999,17140,.45670091E-3,.6011E-4,0
STARLINK-6038,2023-058A,2026-06-08T12:21:57.839328,15.05647862,.0001918,97.3846,160.0298,89.3625,270.7822,0,U,56317,999,17151,-.14293E-4,-.264E-5,0
STARLINK-5954,2023-058B,2026-06-08T11:42:06.532704,15.05640492,.0001519,97.3864,160.0674,97.3101,262.8299,0,U,56318,999,17151,.14659E-3,.2057E-4,0
